COSMOS 2433 (720)       
1 32275U 07052A   22063.36073417 -.00000083  00000+0  00000+0 0  9997
2 32275  66.0848   8.1564 0004002 278.3501 358.7635  2.13104069111724
COSMOS 2432 (719)       
1 32276U 07052B   22063.42115591 -.00000083  00000+0  00000+0 0  9995
2 32276  66.0969   8.2532 0012041 326.1569 305.8961  2.13103467111729
COSMOS 2434 (721)       
1 32393U 07065A   22063.56623318  .00000028  00000+0  00000+0 0  9993
2 32393  64.4034 245.0076 0005169  75.6606 248.2880  2.13103087110434
COSMOS 2436 (723)       
1 32395U 07065C   22062.73302019  .00000027  00000+0  00000+0 0  9994
2 32395  64.4127 245.0917 0016601   8.3811 172.2854  2.13102881110356
COSMOS 2456 (730)       
1 36111U 09070A   22062.81258649  .00000027  00000+0  00000+0 0  9990
2 36111  64.3257 124.6816 0004349 302.3206 330.4948  2.13099104 95087
COSMOS 2457 (733)       
1 36112U 09070B   22063.14451735  .00000025  00000+0  00000+0 0  9997
2 36112  64.3085 124.5509 0005092 177.6509 116.2671  2.13101357 95098
COSMOS 2461 (735)       
1 36401U 10007B   22063.35906356 -.00000083  00000+0  00000+0 0  9992
2 36401  65.9706   7.0085 0021528   1.7473 131.6100  2.13103763 93458
COSMOS 2460 (732)       
1 36402U 10007C   22063.48539446 -.00000083  00000+0  00000+0 0  9999
2 36402  65.9585   6.9586 0002231 321.7489 215.9510  2.13106399 93459
COSMOS 2464 (736)       
1 37139U 10041C   22062.88155105  .00000026  00000+0  00000+0 0  9990
2 37139  64.0036 244.1582 0030281  14.2940   3.4021  2.13100728 89500
COSMOS 2476 (744)       
1 37867U 11064A   22063.42001916  .00000024  00000+0  00000+0 0  9993
2 37867  64.6169 125.9771 0022143 237.1451  46.2674  2.13101853 80441
COSMOS 2477 (745)       
1 37868U 11064B   22062.73932663  .00000027  00000+0  00000+0 0  9992
2 37868  64.6240 126.0626 0019533 238.3520  61.0333  2.13101632 80387
COSMOS 2475 (743)       
1 37869U 11064C   22062.74830089  .00000027  00000+0  00000+0 0  9993
2 37869  64.6308 126.0708 0023597 255.9877   8.1973  2.13101764 80398
COSMOS 2485 (747)       
1 39155U 13019A   22063.34822532  .00000024  00000+0  00000+0 0  9993
2 39155  64.7810 126.3842 0022609 233.1673  39.5790  2.13101801 68915
COSMOS 2492 (754)       
1 39620U 14012A   22062.99031947 -.00000084  00000+0  00000+0 0  9993
2 39620  65.8451   6.6696 0015120 324.1712  68.5728  2.13102929 61869
COSMOS 2500 (755)       
1 40001U 14032A   22062.54225979 -.00000085  00000+0  00000+0 0  9992
2 40001  65.7848   6.5545 0005665 223.2456  44.7087  2.13102443 60068
COSMOS 2501 (702K)      
1 40315U 14075A   22063.21288521  .00000026  00000+0  00000+0 0  9998
2 40315  63.7117 244.8559 0016186 205.2613  24.6544  2.13101338 56488
COSMOS 2514 (751)       
1 41330U 16008A   22063.46309279 -.00000084  00000+0  00000+0 0  9990
2 41330  65.5855   6.2406 0009342 225.3169 212.7013  2.13102595 47253
COSMOS 2516 (753)       
1 41554U 16032A   22063.17679869  .00000026  00000+0  00000+0 0  9993
2 41554  63.9377 245.1035 0011888 211.5159 267.5228  2.13106024 44858
COSMOS 2522 (752)       
1 42939U 17055A   22063.39033321  .00000027  00000+0  00000+0 0  9999
2 42939  64.1718 245.4603 0004889 243.1136 258.2530  2.13101738 34614
COSMOS 2527 (756)       
1 43508U 18053A   22062.87606380  .00000027  00000+0  00000+0 0  9994
2 43508  64.9445 126.3790 0008838 233.0616 265.8816  2.13102531 28891
COSMOS 2529 (757)       
1 43687U 18086A   22062.81519233  .00000027  00000+0  00000+0 0  9992
2 43687  64.3862 245.7680 0007257 276.5196  99.1341  2.13102076 25914
COSMOS 2534 (758)       
1 44299U 19030A   22063.55232253  .00000028  00000+0  00000+0 0  9999
2 44299  64.4582 245.6171 0010591 298.6157  57.1734  2.13101928 21567
COSMOS 2544 (759)       
1 44850U 19088A   22063.48574160  .00000024  00000+0  00000+0 0  9999
2 44850  64.9296 126.2124 0013150 259.5249  30.6910  2.13102358 17331
COSMOS 2545 (760)       
1 45358U 20018A   22062.79571942 -.00000086  00000+0  00000+0 0  9995
2 45358  64.9225   6.9600 0010131 260.5121  69.9752  2.13102653 15275
COSMOS 2547 (705K)      
1 46805U 20075A   22062.52358234  .00000028  00000+0  00000+0 0  9999
2 46805  64.6806 245.0463 0005092 248.2440  85.6508  2.13102987 10511
